{
  "type": "FeatureCollection",
  "features": [
    {
      "type": "Feature",
      "properties": {
        "norad_id": 31736,
        "name": "FENGYUN 1C DEB",
        "group": "fengyun-1c-debris",
        "lat": 21.261024708162644,
        "lon": -22.074218014052164,
        "alt_km": 848.4952970162985,
        "timestamp": "2025-12-05T04:52:15.575432+00:00",
        "meta_object_name": "FENGYUN 1C DEB",
        "meta_object_id": "1999-025CEK",
        "meta_epoch": "2025-12-03T20:30:23.178816",
        "meta_mean_motion": 14.14174485,
        "meta_eccentricity": 0.00109121,
        "meta_inclination": 98.6779,
        "meta_ra_of_asc_node": 340.023,
        "meta_arg_of_pericenter": 268.3872,
        "meta_mean_anomaly": 91.6052,
        "meta_ephemeris_type": 0,
        "meta_classification_type": "U",
        "meta_norad_cat_id": 31736,
        "meta_element_set_no": 999,
        "meta_rev_at_epoch": 63939,
        "meta_bstar": 0.00022509365,
        "meta_mean_motion_dot": 3.86e-06,
        "meta_mean_motion_ddot": 0,
        "tle_line1": "1 31736U 99025CEK 25337.85443494  .00000386  00000+0  22509-3 0  9993",
        "tle_line2": "2 31736  98.6779 340.0230 0010912 268.3872  91.6052 14.14174485639391"
      },
      "geometry": {
        "type": "Point",
        "coordinates": [
          -22.074218014052164,
          21.261024708162644
        ]
      }
    },
    {
      "type": "Feature",
      "properties": {
        "norad_id": 31737,
        "name": "FENGYUN 1C DEB",
        "group": "fengyun-1c-debris",
        "lat": -80.08050700060647,
        "lon": 140.20419696254876,
        "alt_km": 747.4038746650522,
        "timestamp": "2025-12-05T04:52:15.575441+00:00",
        "meta_object_name": "FENGYUN 1C DEB",
        "meta_object_id": "1999-025CEL",
        "meta_epoch": "2025-12-01T13:41:24.347616",
        "meta_mean_motion": 14.68604518,
        "meta_eccentricity": 0.0149838,
        "meta_inclination": 97.9197,
        "meta_ra_of_asc_node": 9.4352,
        "meta_arg_of_pericenter": 51.1715,
        "meta_mean_anomaly": 100.2858,
        "meta_ephemeris_type": 0,
        "meta_classification_type": "U",
        "meta_norad_cat_id": 31737,
        "meta_element_set_no": 999,
        "meta_rev_at_epoch": 98035,
        "meta_bstar": 0.00058137248,
        "meta_mean_motion_dot": 3.955e-05,
        "meta_mean_motion_ddot": 0,
        "tle_line1": "1 31737U 99025CEL 25335.57042069  .00003955  00000+0  58137-3 0  9995",
        "tle_line2": "2 31737  97.9197   9.4352 0149838  51.1715 100.2858 14.68604518980353"
      },
      "geometry": {
        "type": "Point",
        "coordinates": [
          140.20419696254876,
          -80.08050700060647
        ]
      }
    },
    {
      "type": "Feature",
      "properties": {
        "norad_id": 31738,
        "name": "FENGYUN 1C DEB",
        "group": "fengyun-1c-debris",
        "lat": 40.58133675573827,
        "lon": 38.32503488290192,
        "alt_km": 892.6377014909149,
        "timestamp": "2025-12-05T04:52:15.575451+00:00",
        "meta_object_name": "FENGYUN 1C DEB",
        "meta_object_id": "1999-025CEM",
        "meta_epoch": "2025-11-17T10:08:15.850752",
        "meta_mean_motion": 13.84884182,
        "meta_eccentricity": 0.03082109,
        "meta_inclination": 99.3633,
        "meta_ra_of_asc_node": 28.6808,
        "meta_arg_of_pericenter": 167.6176,
        "meta_mean_anomaly": 193.2777,
        "meta_ephemeris_type": 0,
        "meta_classification_type": "U",
        "meta_norad_cat_id": 31738,
        "meta_element_set_no": 999,
        "meta_rev_at_epoch": 61907,
        "meta_bstar": 0.0026324864,
        "meta_mean_motion_dot": 4.259e-05,
        "meta_mean_motion_ddot": 0,
        "tle_line1": "1 31738U 99025CEM 25321.42240568  .00004259  00000+0  26325-2 0  9990",
        "tle_line2": "2 31738  99.3633  28.6808 0308210 167.6176 193.2777 13.84884182619073"
      },
      "geometry": {
        "type": "Point",
        "coordinates": [
          38.32503488290192,
          40.58133675573827
        ]
      }
    },
    {
      "type": "Feature",
      "properties": {
        "norad_id": 31739,
        "name": "FENGYUN 1C DEB",
        "group": "fengyun-1c-debris",
        "lat": 62.322369409725795,
        "lon": -128.29757326140222,
        "alt_km": 733.0770575083197,
        "timestamp": "2025-12-05T04:52:15.575461+00:00",
        "meta_object_name": "FENGYUN 1C DEB",
        "meta_object_id": "1999-025CEN",
        "meta_epoch": "2025-12-04T09:43:16.565376",
        "meta_mean_motion": 14.19211936,
        "meta_eccentricity": 0.0128477,
        "meta_inclination": 98.7488,
        "meta_ra_of_asc_node": 33.8416,
        "meta_arg_of_pericenter": 101.9973,
        "meta_mean_anomaly": 259.5637,
        "meta_ephemeris_type": 0,
        "meta_classification_type": "U",
        "meta_norad_cat_id": 31739,
        "meta_element_set_no": 999,
        "meta_rev_at_epoch": 95368,
        "meta_bstar": 0.00020031,
        "meta_mean_motion_dot": 4.13e-06,
        "meta_mean_motion_ddot": 0,
        "tle_line1": "1 31739U 99025CEN 25338.40505284  .00000413  00000+0  20031-3 0  9993",
        "tle_line2": "2 31739  98.7488  33.8416 0128477 101.9973 259.5637 14.19211936953688"
      },
      "geometry": {
        "type": "Point",
        "coordinates": [
          -128.29757326140222,
          62.322369409725795
        ]
      }
    },
    {
      "type": "Feature",
      "properties": {
        "norad_id": 31740,
        "name": "FENGYUN 1C DEB",
        "group": "fengyun-1c-debris",
        "lat": 10.119460686376826,
        "lon": -28.81638920050499,
        "alt_km": 749.8767782159866,
        "timestamp": "2025-12-05T04:52:15.575471+00:00",
        "meta_object_name": "FENGYUN 1C DEB",
        "meta_object_id": "1999-025CEP",
        "meta_epoch": "2025-12-01T10:18:20.504736",
        "meta_mean_motion": 14.42006625,
        "meta_eccentricity": 0.00243587,
        "meta_inclination": 99.8211,
        "meta_ra_of_asc_node": 145.0762,
        "meta_arg_of_pericenter": 101.5156,
        "meta_mean_anomaly": 289.0641,
        "meta_ephemeris_type": 0,
        "meta_classification_type": "U",
        "meta_norad_cat_id": 31740,
        "meta_element_set_no": 999,
        "meta_rev_at_epoch": 64912,
        "meta_bstar": 0.0016124187,
        "meta_mean_motion_dot": 5.258e-05,
        "meta_mean_motion_ddot": 0,
        "tle_line1": "1 31740U 99025CEP 25335.42940399  .00005258  00000+0  16124-2 0  9993",
        "tle_line2": "2 31740  99.8211 145.0762 0024358 101.5156 289.0641 14.42006625649125"
      },
      "geometry": {
        "type": "Point",
        "coordinates": [
          -28.81638920050499,
          10.119460686376826
        ]
      }
    },
    {
      "type": "Feature",
      "properties": {
        "norad_id": 31742,
        "name": "FENGYUN 1C DEB",
        "group": "fengyun-1c-debris",
        "lat": -24.00726598624117,
        "lon": -157.28986535560296,
        "alt_km": 711.8687757467542,
        "timestamp": "2025-12-05T04:52:15.575480+00:00",
        "meta_object_name": "FENGYUN 1C DEB",
        "meta_object_id": "1999-025CER",
        "meta_epoch": "2025-12-01T20:55:18.603840",
        "meta_mean_motion": 14.39718292,
        "meta_eccentricity": 0.00771232,
        "meta_inclination": 98.9202,
        "meta_ra_of_asc_node": 195.2322,
        "meta_arg_of_pericenter": 1.5398,
        "meta_mean_anomaly": 358.6012,
        "meta_ephemeris_type": 0,
        "meta_classification_type": "U",
        "meta_norad_cat_id": 31742,
        "meta_element_set_no": 999,
        "meta_rev_at_epoch": 96493,
        "meta_bstar": 0.00077832626,
        "meta_mean_motion_dot": 2.475e-05,
        "meta_mean_motion_ddot": 0,
        "tle_line1": "1 31742U 99025CER 25335.87174310  .00002475  00000+0  77833-3 0  9999",
        "tle_line2": "2 31742  98.9202 195.2322 0077123   1.5398 358.6012 14.39718292964931"
      },
      "geometry": {
        "type": "Point",
        "coordinates": [
          -157.28986535560296,
          -24.00726598624117
        ]
      }
    },
    {
      "type": "Feature",
      "properties": {
        "norad_id": 31743,
        "name": "FENGYUN 1C DEB",
        "group": "fengyun-1c-debris",
        "lat": -68.2152771856622,
        "lon": -69.51161663361214,
        "alt_km": 776.9014852361497,
        "timestamp": "2025-12-05T04:52:15.575489+00:00",
        "meta_object_name": "FENGYUN 1C DEB",
        "meta_object_id": "1999-025CES",
        "meta_epoch": "2025-12-04T06:25:48.491040",
        "meta_mean_motion": 14.31179096,
        "meta_eccentricity": 0.003757,
        "meta_inclination": 99.1416,
        "meta_ra_of_asc_node": 265.7458,
        "meta_arg_of_pericenter": 244.5271,
        "meta_mean_anomaly": 270.1944,
        "meta_ephemeris_type": 0,
        "meta_classification_type": "U",
        "meta_norad_cat_id": 31743,
        "meta_element_set_no": 999,
        "meta_rev_at_epoch": 95519,
        "meta_bstar": 0.004069,
        "meta_mean_motion_dot": 0.00010794,
        "meta_mean_motion_ddot": 0,
        "tle_line1": "1 31743U 99025CES 25338.26792235  .00010794  00000+0  40690-2 0  9991",
        "tle_line2": "2 31743  99.1416 265.7458 0037570 244.5271 270.1944 14.31179096955191"
      },
      "geometry": {
        "type": "Point",
        "coordinates": [
          -69.51161663361214,
          -68.2152771856622
        ]
      }
    }
  ]
}